STARLINK-33792          
1 63506U 25071P   26068.56498570  .00022125  00000+0  75717-3 0  9992
2 63506  53.1578 140.3008 0000972 104.7553 255.3555 15.30188086 52704
COSMOS 2588             
1 64095U 25109A   26068.81179522  .00009169  00000+0  32611-3 0  9998
2 64095  72.9704  73.5401 0005019 308.6780  51.3966 15.29122656 44425
